STARLINK-5811           
1 55787U 23028AY  23244.91667824 -.00945871  00000+0 -34451-1 0  9998
2 55787  70.0010   4.7382 0003417 275.3940  47.6816 15.31003799  5859
STARLINK-5804           
1 55788U 23028AZ  23244.91667824 -.00945707  00000+0 -34375-1 0  9992
2 55788  70.0009   4.7347 0003432 277.1083  48.8684 15.31068311  6054
STARLINK-5815           
1 55789U 23028BA  23244.91667824 -.00940711  00000+0 -32400-1 0  9990
2 55789  70.0009   4.6633 0003473 280.3974 108.5580 15.32768223  6006
STARLINK-5813           
1 55790U 23028BB  23244.91667824 -.00942730  00000+0 -33248-1 0  9996
2 55790  70.0012   4.6932 0003462 278.5372  84.0398 15.32022261  6003
STARLINK-5807           
1 55791U 23028BC  23244.91667824 -.00944275  00000+0 -33865-1 0  9998
2 55791  70.0009   4.7153 0003429 275.4965  67.6094 15.31493372  5950
STARLINK-5856           
1 55914U 23037A   23244.87226522  .00000478  00000+0  47828-4 0  9999
2 55914  69.9999 103.8005 0002939 270.4712  89.6111 14.98333998 26393
STARLINK-5859           
1 55915U 23037B   23244.85556753  .00000059  00000+0  12777-4 0  9990
2 55915  69.9992 103.7411 0003094 270.3642  89.7163 14.98334283 26397
STARLINK-5796           
1 55916U 23037C   23244.86809071  .00000408  00000+0  41990-4 0  9993
2 55916  69.9996 103.7851 0002958 271.4885  88.5936 14.98333974 25704
STARLINK-5855           
1 55917U 23037D   23244.90549638  .00009824  00000+0  80477-3 0  9992
2 55917  69.9986 103.5029 0002733 229.5664 130.5258 14.99522053 25714
STARLINK-5867           
1 55918U 23037E   23244.86391422  .00000652  00000+0  62423-4 0  9996
2 55918  69.9992 103.7705 0003110 270.6816  89.3986 14.98326190 25702
STARLINK-5871           
1 55919U 23037F   23244.31731721 -.00000056  00000+0  30966-5 0  9994
2 55919  69.9989 105.0726 0003098 271.6923  88.3882 14.98330917 25629
STARLINK-5862           
1 55920U 23037G   23244.25868431  .00001986  00000+0  17428-3 0  9996
2 55920  69.9989  85.3909 0003875 260.4169  99.6553 14.98313316 26103
STARLINK-5861           
1 55921U 23037H   23244.90563237  .00000010  00000+0  86730-5 0  9996
2 55921  69.9976 103.5130 0003031 269.9056  90.1755 14.98332376 25715
STARLINK-5863           
1 55922U 23037J   23243.04052802  .00000506  00000+0  50235-4 0  9992
2 55922  69.9994 108.2405 0003088 266.3430  93.7376 14.98330909 25439
STARLINK-5854           
1 55923U 23037K   23244.31311679  .00008907  00000+0  75287-3 0  9990
2 55923  69.9989 105.0613 0001844 267.9874  92.1074 14.98356158 25620
STARLINK-5849           
1 55924U 23037L   23244.84981899 -.00000466  00000+0 -32705-4 0  9999
2 55924  69.9950  83.8365 0003299 268.6690  91.4090 14.96712223 26196
STARLINK-5922           
1 55925U 23037M   23244.90146089 -.00000160  00000+0 -55872-5 0  9993
2 55925  69.9993 103.4976 0002913 269.6533  90.4293 14.98331120 25716
STARLINK-5921           
1 55926U 23037N   23244.84699700  .00000196  00000+0  24189-4 0  9993
2 55926  69.9958  83.8277 0003038 269.6885  90.3926 14.98331511 26191
STARLINK-5919           
1 55927U 23037P   23244.89728335 -.00000215  00000+0 -10235-4 0  9997
2 55927  69.9994 103.4831 0003101 270.3540  89.7264 14.98333326 25715
STARLINK-5930           
1 55928U 23037Q   23244.88893476  .00000292  00000+0  32281-4 0  9994
2 55928  69.9996 103.4533 0003081 270.1433  89.9373 14.98333412 25712
STARLINK-5898           
1 55929U 23037R   23244.89310812 -.00000114  00000+0 -17605-5 0  9993
2 55929  69.9999 103.4678 0003052 268.2269  91.8540 14.98334690 25716
STARLINK-5896           
1 55930U 23037S   23244.84282408  .00003824  00000+0  32823-3 0  9995
2 55930  69.9987  83.8113 0002947 273.2944  86.7878 14.98311002 26190
STARLINK-5897           
1 55931U 23037T   23244.88476197 -.00000299  00000+0 -17226-4 0  9996
2 55931  69.9985 103.4391 0003135 270.8813  89.1986 14.98330832 25710
STARLINK-5848           
1 55932U 23037U   23244.91667824 -.00880551  00000+0 -10219-1 0  9999
2 55932  69.9989  68.3309 0003504 274.1211 324.1143 15.63887019  6063
STARLINK-5852           
1 55933U 23037V   23244.85534671 -.00000355  00000+0 -21945-4 0  9993
2 55933  69.9974  83.8567 0003040 270.2799  89.8012 14.98330651 26197
STARLINK-5927           
1 55934U 23037W   23244.75123921 -.00030726  00000+0 -25672-2 0  9999
2 55934  69.9937  83.8914 0004381 268.8244  91.2413 14.98495731 26182
STARLINK-5920           
1 55935U 23037X   23244.83865305  .00005047  00000+0  43059-3 0  9994
2 55935  69.9980  83.7959 0003016 271.1520  88.9293 14.98322458 26192
STARLINK-5882           
1 55936U 23037Y   23244.91667824 -.00880400  00000+0 -10220-1 0  9998
2 55936  69.9990  68.3316 0003502 272.2309 325.3291 15.63879821  6061
STARLINK-5913           
1 55937U 23037Z   23244.83447391  .00000656  00000+0  62814-4 0  9999
2 55937  69.9972  83.7806 0003170 270.8552  89.2244 14.98329009 26197
STARLINK-5909           
1 55938U 23037AA  23244.83030010  .00000504  00000+0  50041-4 0  9997
2 55938  69.9981  83.7658 0003130 268.9661  91.1139 14.98331413 26195
STARLINK-5918           
1 55939U 23037AB  23244.82195312 -.00000260  00000+0 -14024-4 0  9996
2 55939  69.9988  83.7361 0003075 269.4776  90.6031 14.98329812 26190
STARLINK-5864           
1 55940U 23037AC  23244.82612596  .00000034  00000+0  10687-4 0  9994
2 55940  69.9984  83.7505 0003071 268.5032  91.5775 14.98332044 26195
STARLINK-5914           
1 55941U 23037AD  23244.05005338  .00000139  00000+0  19410-4 0  9999
2 55941  69.9988  85.8620 0003086 269.9972  90.0833 14.98329321 26075
STARLINK-5917           
1 55942U 23037AE  23244.80108134 -.00000043  00000+0  42317-5 0  9999
2 55942  69.9984  83.6627 0003297 268.3771  91.7010 14.98330308 26194
STARLINK-5932           
1 55943U 23037AF  23244.74267708  .00000007  00000+0  83614-5 0  9990
2 55943  70.0078  83.8584 0001727 278.2494  81.8469 14.98327496 26185
STARLINK-5926           
1 55944U 23037AG  23244.80525031  .00010220  00000+0  86382-3 0  9995
2 55944  69.9988  83.6820 0003293 263.4401  96.6383 14.98295840 26195
STARLINK-5925           
1 55945U 23037AH  23244.81777518 -.00000011  00000+0  68738-5 0  9991
2 55945  69.9977  83.7208 0003175 269.4635  90.6160 14.98335112 26193
STARLINK-5857           
1 55946U 23037AJ  23244.74684202  .00000228  00000+0  26934-4 0  9991
2 55946  69.9984  83.8751 0002984 270.2537  89.8280 14.98332683 26186
STARLINK-5851           
1 55947U 23037AK  23244.53003325 -.00000069  00000+0  19921-5 0  9993
2 55947  69.9980  84.3215 0003019 269.5676  90.5137 14.98330077 26498
STARLINK-5900           
1 55948U 23037AL  23244.91667824 -.00882757  00000+0 -10291-1 0  9996
2 55948  69.9990  68.3428 0003494 274.4040 313.6938 15.63778713  5968
STARLINK-5899           
1 55949U 23037AM  23244.91667824 -.00876213  00000+0 -10215-1 0  9993
2 55949  69.9990  68.3444 0003442 278.3078 308.4364 15.63761307  6062
STARLINK-5911           
1 55950U 23037AN  23244.91667824 -.00882756  00000+0 -10285-1 0  9991
2 55950  69.9990  68.3413 0003528 279.0054 310.4457 15.63793050  5961
STARLINK-5908           
1 55951U 23037AP  23244.73030240 -.00007647  00000+0 -63759-3 0  9992
2 55951  69.9933  83.8225 0004642 265.7416  94.3212 14.98090528 26185
STARLINK-5893           
1 55952U 23037AQ  23244.91667824 -.00882678  00000+0 -10293-1 0  9995
2 55952  69.9990  68.3435 0003487 273.3347 314.0865 15.63771395  6066
STARLINK-5889           
1 55953U 23037AR  23244.91667824 -.00883158  00000+0 -10305-1 0  9994
2 55953  69.9990  68.3453 0003452 273.7134 312.3541 15.63757323  6019
STARLINK-5892           
1 55954U 23037AS  23244.91667824 -.00880029  00000+0 -10230-1 0  9996
2 55954  69.9989  68.3357 0003502 275.2433 318.9389 15.63843504  6015
STARLINK-5878           
1 55955U 23037AT  23244.91667824 -.00879660  00000+0 -10240-1 0  9997
2 55955  69.9989  68.3400 0003488 270.9760 319.8257 15.63807378  5969
STARLINK-5883           
1 55956U 23037AU  23244.91667824 -.00880262  00000+0 -10227-1 0  9993
2 55956  69.9990  68.3339 0003508 274.4256 321.1078 15.63858144  6061
STARLINK-5884           
1 55957U 23037AV  23244.91667824 -.00879607  00000+0 -10242-1 0  9992
2 55957  69.9990  68.3404 0003545 279.4679 310.6574 15.63800161  6060
STARLINK-5928           
1 55958U 23037AW  23244.91667824 -.00879652  00000+0 -10237-1 0  9997
2 55958  69.9989  68.3389 0003492 273.7539 317.7243 15.63814486  6060
STARLINK-5929           
1 55959U 23037AX  23244.91667824 -.00879641  00000+0 -10234-1 0  9993
2 55959  69.9989  68.3382 0003482 271.8261 320.3283 15.63821670  6038
STARLINK-5938           
1 55960U 23037AY  23244.91667824 -.00880409  00000+0 -10223-1 0  9997
2 55960  69.9990  68.3325 0003513 275.4686 321.4159 15.63872585  6029
STARLINK-5933           
1 55961U 23037AZ  23244.91667824 -.00881023  00000+0 -10239-1 0  9998
2 55961  69.9990  68.3349 0003550 273.8181 321.0387 15.63851906  6077
STARLINK-5906           
1 55962U 23037BA  23244.91667824 -.00879877  00000+0 -10231-1 0  9995
2 55962  69.9989  68.3364 0003499 274.3251 319.1811 15.63836279  6064
STARLINK-5924           
1 55963U 23037BB  23244.91667824 -.00879885  00000+0 -10234-1 0  9998
2 55963  69.9989  68.3373 0003505 275.2135 317.6167 15.63829075  6078
STARLINK-5895           
1 55964U 23037BC  23244.91667824 -.01542889  00000+0 -18077-1 0  9994
2 55964  69.9991  68.3363 0004243 272.6465 321.1585 15.64261795  6016
STARLINK-5894           
1 55965U 23037BD  23244.91667824 -.00880335  00000+0 -10225-1 0  9992
2 55965  69.9989  68.3334 0003512 275.6104 320.5987 15.63865327  5965
STARLINK-5905           
1 55986U 23042A   23244.75193561  .00001626  00000+0  13533-3 0  9998
2 55986  43.0035  15.1603 0000898 272.6277  87.4462 15.02550470 25348
STARLINK-5915           
1 55987U 23042B   23244.66770486  .00003662  00000+0  28601-3 0  9990
2 55987  43.0049  15.3875 0001233 269.6999  90.3702 15.02534315 24516
